start=new Date('2023-04-13T00:00:00.000Z').valueOf();
sats=[{"MEAN_MOTION_DDOT":"0.0000000000000","ECCENTRICITY":"0.00012130","REV_AT_EPOCH":"6847","EPOCH":"2023-04-12T04:17:41.184960","DECAY_DATE":null,"APOAPSIS":"541.179","MEAN_MOTION_DOT":"-0.00053533","TIME_SYSTEM":"UTC","ARG_OF_PERICENTER":"79.5002","LAUNCH_DATE":"2022-01-19","TLE_LINE1":"1 51121U 22005T   23102.17894890 -.00053533  00000-0 -33887-2 0  9995","MEAN_ANOMALY":"280.6126","INCLINATION":"53.2177","ELEMENT_SET_NO":"999","MEAN_ELEMENT_THEORY":"SGP4","OBJECT_TYPE":"PAYLOAD","BSTAR":"-0.00338870000000","TLE_LINE2":"2 51121  53.2177  18.9194 0001213  79.5002 280.6126 15.08645693 68476","GP_ID":"229983349","PERIOD":"95.450","RA_OF_ASC_NODE":"18.9194","REF_FRAME":"TEME","CENTER_NAME":"EARTH","SEMIMAJOR_AXIS":"6918.474","SITE":"AFETR","FILE":"3886349","PERIAPSIS":"539.500","EPHEMERIS_TYPE":"0","COUNTRY_CODE":"US","RCS_SIZE":"LARGE","CLASSIFICATION_TYPE":"U","MEAN_MOTION":"15.08645693","NORAD_CAT_ID":"51121","OBJECT_NAME":"STARLINK-3399","OBJECT_ID":"2022-005T"},{"APOAPSIS":"540.458","MEAN_MOTION_DOT":"0.00001425","TIME_SYSTEM":"UTC","LAUNCH_DATE":"2022-01-19","ARG_OF_PERICENTER":"80.8243","TLE_LINE1":"1 51122U 22005U   23102.49997850  .00001425  00000-0  10758-3 0  9995","ECCENTRICITY":"0.00010280","MEAN_MOTION_DDOT":"0.0000000000000","EPOCH":"2023-04-12T11:59:58.142400","REV_AT_EPOCH":"6852","DECAY_DATE":null,"ELEMENT_SET_NO":"999","OBJECT_TYPE":"PAYLOAD","MEAN_ELEMENT_THEORY":"SGP4","TLE_LINE2":"2 51122  53.2181  17.4828 0001028  80.8243 279.2866 15.08839512 68522","BSTAR":"0.00010758000000","MEAN_ANOMALY":"279.2866","INCLINATION":"53.2181","PERIAPSIS":"539.036","FILE":"3886349","EPHEMERIS_TYPE":"0","COUNTRY_CODE":"US","GP_ID":"229983587","CENTER_NAME":"EARTH","REF_FRAME":"TEME","PERIOD":"95.438","RA_OF_ASC_NODE":"17.4828","SITE":"AFETR","SEMIMAJOR_AXIS":"6917.882","NORAD_CAT_ID":"51122","OBJECT_NAME":"STARLINK-3373","OBJECT_ID":"2022-005U","CLASSIFICATION_TYPE":"U","RCS_SIZE":"LARGE","MEAN_MOTION":"15.08839512"},{"DECAY_DATE":null,"EPOCH":"2023-04-12T11:47:59.703072","REV_AT_EPOCH":"6852","MEAN_MOTION_DDOT":"0.0000000000000","ECCENTRICITY":"0.00013270","TLE_LINE1":"1 51123U 22005V   23102.49166323 -.00001090  00000-0 -50408-4 0  9996","LAUNCH_DATE":"2022-01-19","ARG_OF_PERICENTER":"88.6210","TIME_SYSTEM":"UTC","MEAN_MOTION_DOT":"-0.00001090","APOAPSIS":"540.694","INCLINATION":"53.2163","MEAN_ANOMALY":"271.4934","TLE_LINE2":"2 51123  53.2163  17.5100 0001327  88.6210 271.4934 15.08829891 68528","BSTAR":"-0.00005040800000","OBJECT_TYPE":"PAYLOAD","MEAN_ELEMENT_THEORY":"SGP4","ELEMENT_SET_NO":"999","SITE":"AFETR","SEMIMAJOR_AXIS":"6917.911","CENTER_NAME":"EARTH","RA_OF_ASC_NODE":"17.5100","PERIOD":"95.438","REF_FRAME":"TEME","GP_ID":"229982352","COUNTRY_CODE":"US","EPHEMERIS_TYPE":"0","FILE":"3886349","PERIAPSIS":"538.858","MEAN_MOTION":"15.08829891","RCS_SIZE":"LARGE","CLASSIFICATION_TYPE":"U","OBJECT_ID":"2022-005V","OBJECT_NAME":"STARLINK-3392","NORAD_CAT_ID":"51123"},{"CENTER_NAME":"EARTH","PERIOD":"95.437","REF_FRAME":"TEME","RA_OF_ASC_NODE":"29.3980","SITE":"AFETR","SEMIMAJOR_AXIS":"6917.874","GP_ID":"229982602","EPHEMERIS_TYPE":"0","COUNTRY_CODE":"US","FILE":"3886349","PERIAPSIS":"538.965","MEAN_MOTION":"15.08842143","RCS_SIZE":"LARGE","CLASSIFICATION_TYPE":"U","OBJECT_NAME":"STARLINK-3389","OBJECT_ID":"2022-005W","NORAD_CAT_ID":"51124","EPOCH":"2023-04-12T01:42:33.181632","REV_AT_EPOCH":"6832","DECAY_DATE":null,"MEAN_MOTION_DDOT":"0.0000000000000","ECCENTRICITY":"0.00011190","LAUNCH_DATE":"2022-01-19","ARG_OF_PERICENTER":"91.7520","TLE_LINE1":"1 51124U 22005W   23102.07121738 -.00000461  00000-0 -10873-4 0  9995","MEAN_MOTION_DOT":"-0.00000461","APOAPSIS":"540.513","TIME_SYSTEM":"UTC","INCLINATION":"53.2180","MEAN_ANOMALY":"268.3601","TLE_LINE2":"2 51124  53.2180  29.3980 0001119  91.7520 268.3601 15.08842143 68322","BSTAR":"-0.00001087300000","ELEMENT_SET_NO":"999","OBJECT_TYPE":"PAYLOAD","MEAN_ELEMENT_THEORY":"SGP4"},{"TLE_LINE2":"2 51125  53.2184  27.3694 0001367  80.2856 279.8290 15.08835887 69494","BSTAR":"0.00002651300000","OBJECT_TYPE":"PAYLOAD","MEAN_ELEMENT_THEORY":"SGP4","ELEMENT_SET_NO":"999","INCLINATION":"53.2184","MEAN_ANOMALY":"279.8290","TLE_LINE1":"1 51125U 22005X   23102.52482082  .00000134  00000-0  26513-4 0  9991","LAUNCH_DATE":"2022-01-19","ARG_OF_PERICENTER":"80.2856","TIME_SYSTEM":"UTC","APOAPSIS":"540.704","MEAN_MOTION_DOT":"0.00000134","DECAY_DATE":null,"EPOCH":"2023-04-12T12:35:44.518848","REV_AT_EPOCH":"6949","ECCENTRICITY":"0.00013670","MEAN_MOTION_DDOT":"0.0000000000000","OBJECT_ID":"2022-005X","OBJECT_NAME":"STARLINK-3387","NORAD_CAT_ID":"51125","MEAN_MOTION":"15.08835887","RCS_SIZE":"LARGE","CLASSIFICATION_TYPE":"U","COUNTRY_CODE":"US","EPHEMERIS_TYPE":"0","FILE":"3886259","PERIAPSIS":"538.812","SITE":"AFETR","SEMIMAJOR_AXIS":"6917.893","CENTER_NAME":"EARTH","REF_FRAME":"TEME","PERIOD":"95.438","RA_OF_ASC_NODE":"27.3694","GP_ID":"229957211"},{"INCLINATION":"53.2182","MEAN_ANOMALY":"259.6915","TLE_LINE2":"2 51126  53.2182  29.4186 0001260 100.4219 259.6915 15.08837080 68320","BSTAR":"-0.00001323600000","OBJECT_TYPE":"PAYLOAD","MEAN_ELEMENT_THEORY":"SGP4","ELEMENT_SET_NO":"999","DECAY_DATE":null,"EPOCH":"2023-04-12T01:38:38.025888","REV_AT_EPOCH":"6832","MEAN_MOTION_DDOT":"0.0000000000000","ECCENTRICITY":"0.00012600","TLE_LINE1":"1 51126U 22005Y   23102.06849567 -.00000498  00000-0 -13236-4 0  9999","LAUNCH_DATE":"2022-01-19","ARG_OF_PERICENTER":"100.4219","TIME_SYSTEM":"UTC","APOAPSIS":"540.626","MEAN_MOTION_DOT":"-0.00000498","MEAN_MOTION":"15.08837080","CLASSIFICATION_TYPE":"U","RCS_SIZE":"LARGE","OBJECT_ID":"2022-005Y","OBJECT_NAME":"STARLINK-3386","NORAD_CAT_ID":"51126","SITE":"AFETR","SEMIMAJOR_AXIS":"6917.889","CENTER_NAME":"EARTH","RA_OF_ASC_NODE":"29.4186","PERIOD":"95.438","REF_FRAME":"TEME","GP_ID":"229983087","COUNTRY_CODE":"US","EPHEMERIS_TYPE":"0","PERIAPSIS":"538.883","FILE":"3886349"},{"MEAN_MOTION":"15.08835593","RCS_SIZE":"LARGE","CLASSIFICATION_TYPE":"U","OBJECT_ID":"2022-005Z","OBJECT_NAME":"STARLINK-3370","NORAD_CAT_ID":"51127","SITE":"AFETR","SEMIMAJOR_AXIS":"6917.894","CENTER_NAME":"EARTH","PERIOD":"95.438","RA_OF_ASC_NODE":"26.1657","REF_FRAME":"TEME","GP_ID":"229988104","COUNTRY_CODE":"US","EPHEMERIS_TYPE":"0","FILE":"3886439","PERIAPSIS":"538.986","INCLINATION":"53.2169","MEAN_ANOMALY":"269.8477","TLE_LINE2":"2 51127  53.2169  26.1657 0001117  90.2643 269.8477 15.08835593 69549","BSTAR":"0.00063750000000","OBJECT_TYPE":"PAYLOAD","MEAN_ELEMENT_THEORY":"SGP4","ELEMENT_SET_NO":"999","DECAY_DATE":null,"EPOCH":"2023-04-12T19:02:35.087424","REV_AT_EPOCH":"6954","ECCENTRICITY":"0.00011170","MEAN_MOTION_DDOT":"0.0000000000000","TLE_LINE1":"1 51127U 22005Z   23102.79346166  .00009871  00000-0  63750-3 0  9994","LAUNCH_DATE":"2022-01-19","ARG_OF_PERICENTER":"90.2643","TIME_SYSTEM":"UTC","MEAN_MOTION_DOT":"0.00009871","APOAPSIS":"540.532"},{"TIME_SYSTEM":"UTC","MEAN_MOTION_DOT":"0.00005472","APOAPSIS":"540.528","TLE_LINE1":"1 51128U 22005AA  23102.50914349  .00005472  00000-0  36161-3 0  9997","ARG_OF_PERICENTER":"93.9728","LAUNCH_DATE":"2022-01-19","ECCENTRICITY":"0.00011320","MEAN_MOTION_DDOT":"0.0000000000000","DECAY_DATE":null,"REV_AT_EPOCH":"6837","EPOCH":"2023-04-12T12:13:09.997536","MEAN_ELEMENT_THEORY":"SGP4","OBJECT_TYPE":"PAYLOAD","ELEMENT_SET_NO":"999","BSTAR":"0.00036161000000","TLE_LINE2":"2 51128  53.2175  27.4314 0001132  93.9728 266.1394 15.08840079 68375","MEAN_ANOMALY":"266.1394","INCLINATION":"53.2175","FILE":"3886349","PERIAPSIS":"538.962","COUNTRY_CODE":"US","EPHEMERIS_TYPE":"0","GP_ID":"229982102","SEMIMAJOR_AXIS":"6917.880","SITE":"AFETR","REF_FRAME":"TEME","PERIOD":"95.438","RA_OF_ASC_NODE":"27.4314","CENTER_NAME":"EARTH","NORAD_CAT_ID":"51128","OBJECT_ID":"2022-005AA","OBJECT_NAME":"STARLINK-3400","RCS_SIZE":"LARGE","CLASSIFICATION_TYPE":"U","MEAN_MOTION":"15.08840079"},{"RCS_SIZE":"LARGE","CLASSIFICATION_TYPE":"U","MEAN_MOTION":"15.08839644","NORAD_CAT_ID":"51129","OBJECT_ID":"2022-005AB","OBJECT_NAME":"STARLINK-3396","GP_ID":"229983350","SITE":"AFETR","SEMIMAJOR_AXIS":"6917.881","CENTER_NAME":"EARTH","REF_FRAME":"TEME","PERIOD":"95.438","RA_OF_ASC_NODE":"28.8147","FILE":"3886349","PERIAPSIS":"539.086","COUNTRY_CODE":"US","EPHEMERIS_TYPE":"0","MEAN_ANOMALY":"274.4480","INCLINATION":"53.2174","OBJECT_TYPE":"PAYLOAD","MEAN_ELEMENT_THEORY":"SGP4","ELEMENT_SET_NO":"999","TLE_LINE2":"2 51129  53.2174  28.8147 0000955  85.6621 274.4480 15.08839644 68336","BSTAR":"0.00004151000000","MEAN_MOTION_DDOT":"0.0000000000000","ECCENTRICITY":"0.00009550","DECAY_DATE":null,"EPOCH":"2023-04-12T04:58:37.746048","REV_AT_EPOCH":"6833","TIME_SYSTEM":"UTC","APOAPSIS":"540.407","MEAN_MOTION_DOT":"0.00000373","TLE_LINE1":"1 51129U 22005AB  23102.20738132  .00000373  00000-0  41510-4 0  9999","LAUNCH_DATE":"2022-01-19","ARG_OF_PERICENTER":"85.6621"},{"SEMIMAJOR_AXIS":"6917.886","SITE":"AFETR","PERIOD":"95.438","RA_OF_ASC_NODE":"27.3803","REF_FRAME":"TEME","CENTER_NAME":"EARTH","GP_ID":"229983588","COUNTRY_CODE":"US","EPHEMERIS_TYPE":"0","PERIAPSIS":"538.966","FILE":"3886349","MEAN_MOTION":"15.08838070","RCS_SIZE":"LARGE","CLASSIFICATION_TYPE":"U","OBJECT_ID":"2022-005AC","OBJECT_NAME":"STARLINK-3395","NORAD_CAT_ID":"51130","DECAY_DATE":null,"REV_AT_EPOCH":"6837","EPOCH":"2023-04-12T12:29:03.662592","ECCENTRICITY":"0.00011350","MEAN_MOTION_DDOT":"0.0000000000000","TLE_LINE1":"1 51130U 22005AC  23102.52018128  .00003865  00000-0  26083-3 0  9998","ARG_OF_PERICENTER":"90.5117","LAUNCH_DATE":"2022-01-19","TIME_SYSTEM":"UTC","MEAN_MOTION_DOT":"0.00003865","APOAPSIS":"540.536","INCLINATION":"53.2163","MEAN_ANOMALY":"269.6005","BSTAR":"0.00026083000000","TLE_LINE2":"2 51130  53.2163  27.3803 0001135  90.5117 269.6005 15.08838070 68370","MEAN_ELEMENT_THEORY":"SGP4","OBJECT_TYPE":"PAYLOAD","ELEMENT_SET_NO":"999"}];
